{
"type": "FeatureCollection",
"name": "districts",
"crs": { "type": "name", "properties": { "name": "urn:ogc:def:crs:OGC:1.3:CRS84" } },
"features": [
{ "type": "Feature", "properties": { "AC_NAME": "Rampachodavaram(ST)", "AC_NO": "172", "DIST_NAME": "EAST GODAVARI", "ST_NAME": "ANDHRA PRADESH", "ac_id": "AC_01" }, "geometry": { "type": "Polygon", "coordinates": [ [ [ 81.979273911848637, 18.014260027115562 ], [ 82.009817386742597, 17.98057068152254 ], [ 82.02772199151498, 17.931737147220481 ], [ 82.002690244469235, 17.900896556559161 ], [ 82.004770827971385, 17.871214268741092 ], [ 82.019641368431138, 17.839610547991381 ], [ 81.977428781031904, 17.84528378792665 ], [ 81.961721212818603, 17.816824175333689 ], [ 81.879998538031685, 17.772540415141961 ], [ 81.877126748160109, 17.741716087748681 ], [ 81.898353043760068, 17.74553198884831 ], [ 81.935311470648088, 17.738704143619209 ], [ 81.972429212656877, 17.74702968725882 ], [ 81.981679581853683, 17.7687960959809 ], [ 82.018054012115769, 17.74960575639636 ], [ 82.032868779615782, 17.708975077648041 ], [ 82.016271969858977, 17.6616474815497 ], [ 82.001778875710514, 17.63915474257891 ], [ 82.016143661972222, 17.618757607822658 ], [ 82.051560995099791, 17.643441804845349 ], [ 82.089964842109495, 17.656892669682801 ], [ 82.137257565772202, 17.648008286041549 ], [ 82.162892885275483, 17.610563533068358 ], [ 82.228119525339295, 17.638792616065999 ], [ 82.248640118405518, 17.61946217376186 ], [ 82.275005535464061, 17.611902712826868 ], [ 82.304022204541923, 17.590225363039529 ], [ 82.341016023158588, 17.587333863177552 ], [ 82.342077484700255, 17.57522052792692 ], [ 82.328971642209183, 17.5572362440126 ], [ 82.33755128079693, 17.52404516652895 ], [ 82.331886931373887, 17.504796772707781 ], [ 82.283818762025589, 17.475888152815351 ], [ 82.279730410880319, 17.46383449270655 ], [ 82.270721222534576, 17.439113425000489 ], [ 82.229720108449939, 17.409368374263408 ], [ 82.203799179455402, 17.37972049528247 ], [ 82.168027156544866, 17.361492461884009 ], [ 82.143676140446999, 17.366134444655302 ], [ 82.108068102603625, 17.396599556125452 ], [ 82.097575308003059, 17.380092063294821 ], [ 82.054094726090895, 17.380189764407788 ], [ 82.044994268458481, 17.36653250810744 ], [ 82.043597159914626, 17.313996161151351 ], [ 82.086920608020989, 17.284293095922379 ], [ 82.078019653083416, 17.26837826971639 ], [ 82.034703288236329, 17.272040997746121 ], [ 82.02174396484196, 17.290986212452388 ], [ 81.974191128257075, 17.291860526146849 ], [ 81.945189788764367, 17.267628152535789 ], [ 81.915454884422658, 17.262287889607709 ], [ 81.92172897220874, 17.293506340870952 ], [ 81.877462824662061, 17.29334414331629 ], [ 81.864261168956517, 17.269653903379371 ], [ 81.83213420542819, 17.300052011289321 ], [ 81.821195040323431, 17.25401300031325 ], [ 81.800961118734335, 17.236439906537189 ], [ 81.770033795766707, 17.2375076197828 ], [ 81.751366127503928, 17.224417599463571 ], [ 81.691402081317023, 17.224132749490661 ], [ 81.68304648063517, 17.255685705113219 ], [ 81.657267779319895, 17.268310177315531 ], [ 81.679436949577308, 17.301721228223268 ], [ 81.642525433524469, 17.32428353498279 ], [ 81.614886992299688, 17.33136506401295 ], [ 81.60466887041467, 17.376162198679179 ], [ 81.614518684734605, 17.406807068453009 ], [ 81.586243586246951, 17.405957372377291 ], [ 81.575942791664232, 17.4331112674124 ], [ 81.54088885141168, 17.436911728716481 ], [ 81.498344087231757, 17.48149327269131 ], [ 81.524647145065444, 17.504837441819038 ], [ 81.510491884213053, 17.51939444334095 ], [ 81.512271545573284, 17.544979957191082 ], [ 81.536679088370533, 17.584566392424609 ], [ 81.516463705561137, 17.60034668185045 ], [ 81.52422504482179, 17.621517783499389 ], [ 81.544291597989059, 17.63605426610884 ], [ 81.567783630065321, 17.681669816917609 ], [ 81.581560688361094, 17.693245886098691 ], [ 81.58348036184816, 17.732415162742509 ], [ 81.615772786023811, 17.751025835625121 ], [ 81.633989080576413, 17.773681576834299 ], [ 81.699024343524812, 17.782356710558702 ], [ 81.711978793767599, 17.810264724753448 ], [ 81.746719803860472, 17.831843122159579 ], [ 81.764141310710542, 17.827090567821919 ], [ 81.811364329012136, 17.85952608245849 ], [ 81.774569848249428, 17.88643192935962 ], [ 81.763282185921426, 17.90256814853841 ], [ 81.790111177929091, 17.920841419120631 ], [ 81.809875861336835, 17.951019444508919 ], [ 81.866466564989949, 17.963324582282802 ], [ 81.903693406113987, 17.97668728143509 ], [ 81.91988133390339, 17.991238250558929 ], [ 81.962944029445836, 17.999276214605519 ], [ 81.979273911848637, 18.014260027115562 ] ] ] } },
{ "type": "Feature", "properties": { "AC_NAME": "Tuni", "AC_NO": "154", "DIST_NAME": "EAST GODAVARI", "ST_NAME": "ANDHRA PRADESH", "ac_id": "AC_02" }, "geometry": { "type": "Polygon", "coordinates": [ [ [ 82.55202962831531, 17.527717022789808 ], [ 82.585386018498681, 17.469472512876099 ], [ 82.604844458952499, 17.459600842651 ], [ 82.582977556738683, 17.42512238508354 ], [ 82.560305820250704, 17.408293063253609 ], [ 82.542933098525296, 17.374869358471699 ], [ 82.559816437254185, 17.342254109119558 ], [ 82.535480820001041, 17.327610926676218 ], [ 82.518110762034922, 17.298663226208159 ], [ 82.525505645758358, 17.271535880882389 ], [ 82.542433346376939, 17.248890409381382 ], [ 82.444149955937633, 17.175495134227521 ], [ 82.428279918696404, 17.193139785072969 ], [ 82.401143507665566, 17.16483391682446 ], [ 82.365324715084128, 17.184228976109669 ], [ 82.354152343323577, 17.231996987245012 ], [ 82.349722860338986, 17.25929646095657 ], [ 82.358653180399926, 17.28073567052839 ], [ 82.386338910031995, 17.294098239954231 ], [ 82.411623385124216, 17.283024843605411 ], [ 82.410705518979569, 17.324693002090989 ], [ 82.430994017195275, 17.336735660633249 ], [ 82.442498305153663, 17.359979151533139 ], [ 82.412954289254529, 17.36743354196182 ], [ 82.328165929603955, 17.378597555845829 ], [ 82.308750662743805, 17.389657742128058 ], [ 82.311141366667783, 17.41438721329185 ], [ 82.279730410880319, 17.46383449270655 ], [ 82.283818762025589, 17.475888152815351 ], [ 82.331886931373887, 17.504796772707781 ], [ 82.410289326873169, 17.467010286266781 ], [ 82.451238669445061, 17.480882915911 ], [ 82.449747183218591, 17.511497147813571 ], [ 82.480272408987048, 17.501297992424568 ], [ 82.516969196765729, 17.501971430415519 ], [ 82.546499002001823, 17.51343486322984 ], [ 82.55202962831531, 17.527717022789808 ] ] ] } },
{ "type": "Feature", "properties": { "AC_NAME": "Polavaram (ST)", "AC_NO": "186", "DIST_NAME": "WEST GODAVARI", "ST_NAME": "ANDHRA PRADESH", "ac_id": "AC_03" }, "geometry": { "type": "Polygon", "coordinates": [ [ [ 81.498344087231757, 17.48149327269131 ], [ 81.54088885141168, 17.436911728716481 ], [ 81.575942791664232, 17.4331112674124 ], [ 81.586243586246951, 17.405957372377291 ], [ 81.614518684734605, 17.406807068453009 ], [ 81.60466887041467, 17.376162198679179 ], [ 81.614886992299688, 17.33136506401295 ], [ 81.642525433524469, 17.32428353498279 ], [ 81.679436949577308, 17.301721228223268 ], [ 81.657267779319895, 17.268310177315531 ], [ 81.641622471809882, 17.230122669065668 ], [ 81.640651944478222, 17.207320854036031 ], [ 81.663528128557388, 17.151659399226279 ], [ 81.644596966859112, 17.151763279320249 ], [ 81.613034272288928, 17.167911674876379 ], [ 81.544685975208623, 17.210887090161322 ], [ 81.518066489192321, 17.189882695705101 ], [ 81.46646083000843, 17.16993949799005 ], [ 81.477513216185827, 17.14122751106672 ], [ 81.466022191363109, 17.113636705779822 ], [ 81.447505836914857, 17.099884745079741 ], [ 81.448453668626996, 17.07212506162605 ], [ 81.426092567403856, 17.06087417747575 ], [ 81.447608233082548, 17.032707580957169 ], [ 81.434040757652042, 17.011089641356548 ], [ 81.415335311548745, 17.04191184781266 ], [ 81.357783241958984, 17.021109122122681 ], [ 81.344801240660502, 17.046339492630839 ], [ 81.361839797153863, 17.06792753297778 ], [ 81.400322297512659, 17.089311185756451 ], [ 81.402970085091468, 17.108917182883012 ], [ 81.374074668600983, 17.11934573071175 ], [ 81.319747177881297, 17.104081563051661 ], [ 81.307395556386965, 17.124762075598579 ], [ 81.321035078225592, 17.14283830994983 ], [ 81.289372976587273, 17.15118816870325 ], [ 81.273047844958626, 17.16867508006704 ], [ 81.230269688550237, 17.161591617521111 ], [ 81.201426151796824, 17.170937427605601 ], [ 81.175678635593002, 17.165821981155279 ], [ 81.172795158440195, 17.14013192155755 ], [ 81.154895912517574, 17.12391153602421 ], [ 81.197173175322689, 17.11148058771888 ], [ 81.223866787085527, 17.088468703752131 ], [ 81.232702006896517, 17.06111273282821 ], [ 81.224669270485307, 17.036320212767219 ], [ 81.156786727706319, 17.040834844098409 ], [ 81.115614489150133, 17.0335685510783 ], [ 81.09345202706146, 16.98591219852446 ], [ 81.057705364859913, 16.991301023511951 ], [ 81.070719159337287, 17.038733984718888 ], [ 81.02149639507023, 17.035493262501639 ], [ 81.010055608338078, 17.06493020043624 ], [ 81.017296593097115, 17.084508353504098 ], [ 81.038916570262543, 17.081698777047791 ], [ 81.047645940156855, 17.1191979659718 ], [ 81.034079579615664, 17.12716515911324 ], [ 81.031999112287053, 17.19210469690287 ], [ 81.054926916852921, 17.225346800362189 ], [ 81.079420523285918, 17.21540538611276 ], [ 81.101371465685062, 17.22253420785993 ], [ 81.173606660859761, 17.23104714833995 ], [ 81.187550496491156, 17.254976268550479 ], [ 81.176614274709621, 17.28798608661327 ], [ 81.190365174616943, 17.325133803437481 ], [ 81.273973690534191, 17.31751071837424 ], [ 81.305247313845214, 17.3462204241115 ], [ 81.33415912842392, 17.398648037497029 ], [ 81.379727449489167, 17.363511552343301 ], [ 81.42396158458962, 17.367584174806119 ], [ 81.460363367808966, 17.411248041548578 ], [ 81.48701132914438, 17.435151215997831 ], [ 81.503106705391957, 17.463912716913729 ], [ 81.495635272450627, 17.47738059795882 ], [ 81.498344087231757, 17.48149327269131 ] ] ] } },
{ "type": "Feature", "properties": { "AC_NAME": "Prathipadu", "AC_NO": "155", "DIST_NAME": "EAST GODAVARI", "ST_NAME": "ANDHRA PRADESH", "ac_id": "AC_04" }, "geometry": { "type": "Polygon", "coordinates": [ [ [ 82.279730410880319, 17.46383449270655 ], [ 82.311141366667783, 17.41438721329185 ], [ 82.308750662743805, 17.389657742128058 ], [ 82.328165929603955, 17.378597555845829 ], [ 82.412954289254529, 17.36743354196182 ], [ 82.442498305153663, 17.359979151533139 ], [ 82.430994017195275, 17.336735660633249 ], [ 82.410705518979569, 17.324693002090989 ], [ 82.411623385124216, 17.283024843605411 ], [ 82.386338910031995, 17.294098239954231 ], [ 82.358653180399926, 17.28073567052839 ], [ 82.349722860338986, 17.25929646095657 ], [ 82.354152343323577, 17.231996987245012 ], [ 82.319736892255506, 17.219773903374868 ], [ 82.309148124455078, 17.232182005869539 ], [ 82.238236341911417, 17.233903006413851 ], [ 82.228671621935689, 17.2190855927889 ], [ 82.201273719623828, 17.214356137635971 ], [ 82.180915206892223, 17.224123963647891 ], [ 82.14422701748552, 17.213878418598661 ], [ 82.091908219099238, 17.237013872586171 ], [ 82.098017240165632, 17.25055362647241 ], [ 82.078019653083416, 17.26837826971639 ], [ 82.086920608020989, 17.284293095922379 ], [ 82.043597159914626, 17.313996161151351 ], [ 82.044994268458481, 17.36653250810744 ], [ 82.054094726090895, 17.380189764407788 ], [ 82.097575308003059, 17.380092063294821 ], [ 82.108068102603625, 17.396599556125452 ], [ 82.143676140446999, 17.366134444655302 ], [ 82.168027156544866, 17.361492461884009 ], [ 82.203799179455402, 17.37972049528247 ], [ 82.229720108449939, 17.409368374263408 ], [ 82.270721222534576, 17.439113425000489 ], [ 82.279730410880319, 17.46383449270655 ] ] ] } },
{ "type": "Feature", "properties": { "AC_NAME": "Jaggampeta", "AC_NO": "171", "DIST_NAME": "EAST GODAVARI", "ST_NAME": "ANDHRA PRADESH", "ac_id": "AC_05" }, "geometry": { "type": "Polygon", "coordinates": [ [ [ 82.078019653083416, 17.26837826971639 ], [ 82.098017240165632, 17.25055362647241 ], [ 82.091908219099238, 17.237013872586171 ], [ 82.14422701748552, 17.213878418598661 ], [ 82.180915206892223, 17.224123963647891 ], [ 82.201273719623828, 17.214356137635971 ], [ 82.199957071619437, 17.178902497426439 ], [ 82.181419461362367, 17.14758568778959 ], [ 82.135019278053448, 17.16706909819597 ], [ 82.111920165512402, 17.166861904279269 ], [ 82.097055984292822, 17.13110339147714 ], [ 82.081663711551883, 17.117632734647461 ], [ 82.07667652446132, 17.084890397581361 ], [ 82.056896604732856, 17.071317621329769 ], [ 82.034616334353444, 17.093109006960699 ], [ 81.99409673775709, 17.113045247740288 ], [ 81.964423818227075, 17.115936941154299 ], [ 81.919465041842315, 17.095699063459769 ], [ 81.910063322943543, 17.151977498623779 ], [ 81.902390673229533, 17.168075223395579 ], [ 81.865976218808385, 17.183682648694301 ], [ 81.82052938903874, 17.175695895335771 ], [ 81.809354519276141, 17.1999291356519 ], [ 81.783123273365732, 17.20289203551258 ], [ 81.770033795766707, 17.2375076197828 ], [ 81.800961118734335, 17.236439906537189 ], [ 81.821195040323431, 17.25401300031325 ], [ 81.83213420542819, 17.300052011289321 ], [ 81.864261168956517, 17.269653903379371 ], [ 81.877462824662061, 17.29334414331629 ], [ 81.92172897220874, 17.293506340870952 ], [ 81.915454884422658, 17.262287889607709 ], [ 81.945189788764367, 17.267628152535789 ], [ 81.974191128257075, 17.291860526146849 ], [ 82.02174396484196, 17.290986212452388 ], [ 82.034703288236329, 17.272040997746121 ], [ 82.078019653083416, 17.26837826971639 ] ] ] } },
{ "type": "Feature", "properties": { "AC_NAME": "Rajanagaram", "AC_NO": "168", "DIST_NAME": "EAST GODAVARI", "ST_NAME": "ANDHRA PRADESH", "ac_id": "AC_06" }, "geometry": { "type": "Polygon", "coordinates": [ [ [ 81.657267779319895, 17.268310177315531 ], [ 81.68304648063517, 17.255685705113219 ], [ 81.691402081317023, 17.224132749490661 ], [ 81.751366127503928, 17.224417599463571 ], [ 81.770033795766707, 17.2375076197828 ], [ 81.783123273365732, 17.20289203551258 ], [ 81.809354519276141, 17.1999291356519 ], [ 81.82052938903874, 17.175695895335771 ], [ 81.865976218808385, 17.183682648694301 ], [ 81.902390673229533, 17.168075223395579 ], [ 81.910063322943543, 17.151977498623779 ], [ 81.919465041842315, 17.095699063459769 ], [ 81.915660520522451, 17.07637461450641 ], [ 81.941574073076396, 17.068173330620908 ], [ 81.964702407563735, 17.045457295739102 ], [ 81.929967133389681, 17.022795169288379 ], [ 81.95963648969115, 16.989432998681689 ], [ 81.961618045272317, 16.949205006076792 ], [ 81.936862857892834, 16.939853387761008 ], [ 81.915604105424777, 16.969656593489891 ], [ 81.898358538599837, 16.945833223111379 ], [ 81.882451637274357, 16.94550561817837 ], [ 81.856864776884123, 16.924039418623099 ], [ 81.826307881094692, 16.938585467763239 ], [ 81.828473753994359, 16.96002732651753 ], [ 81.846354949335023, 16.974694014780411 ], [ 81.84599222487391, 16.99700925980477 ], [ 81.823711450008062, 17.003366092654382 ], [ 81.808555479094096, 17.0246643470953 ], [ 81.784171628271793, 17.030167608343142 ], [ 81.785107012019395, 17.06558446370255 ], [ 81.761445320367898, 17.07831715156081 ], [ 81.722650301707603, 17.05100242202511 ], [ 81.6970305346657, 17.085565535729611 ], [ 81.680702171376581, 17.094835131949061 ], [ 81.663528128557388, 17.151659399226279 ], [ 81.640651944478222, 17.207320854036031 ], [ 81.641622471809882, 17.230122669065668 ], [ 81.657267779319895, 17.268310177315531 ] ] ] } },
{ "type": "Feature", "properties": { "AC_NAME": "Pithapuram", "AC_NO": "156", "DIST_NAME": "EAST GODAVARI", "ST_NAME": "ANDHRA PRADESH", "ac_id": "AC_07" }, "geometry": { "type": "Polygon", "coordinates": [ [ [ 82.354152343323577, 17.231996987245012 ], [ 82.365324715084128, 17.184228976109669 ], [ 82.401143507665566, 17.16483391682446 ], [ 82.428279918696404, 17.193139785072969 ], [ 82.444149955937633, 17.175495134227521 ], [ 82.30703586473139, 17.04238359847761 ], [ 82.260143268311282, 17.06769426523088 ], [ 82.224282475140029, 17.090664365564329 ], [ 82.176847851719387, 17.085389998028361 ], [ 82.163699854415185, 17.129504948784881 ], [ 82.181419461362367, 17.14758568778959 ], [ 82.199957071619437, 17.178902497426439 ], [ 82.201273719623828, 17.214356137635971 ], [ 82.228671621935689, 17.2190855927889 ], [ 82.238236341911417, 17.233903006413851 ], [ 82.309148124455078, 17.232182005869539 ], [ 82.319736892255506, 17.219773903374868 ], [ 82.354152343323577, 17.231996987245012 ] ] ] } },
{ "type": "Feature", "properties": { "AC_NAME": "Chintalapudi (SC)", "AC_NO": "187", "DIST_NAME": "WEST GODAVARI", "ST_NAME": "ANDHRA PRADESH", "ac_id": "AC_08" }, "geometry": { "type": "Polygon", "coordinates": [ [ [ 81.031999112287053, 17.19210469690287 ], [ 81.034079579615664, 17.12716515911324 ], [ 81.047645940156855, 17.1191979659718 ], [ 81.038916570262543, 17.081698777047791 ], [ 81.017296593097115, 17.084508353504098 ], [ 81.010055608338078, 17.06493020043624 ], [ 81.02149639507023, 17.035493262501639 ], [ 81.070719159337287, 17.038733984718888 ], [ 81.057705364859913, 16.991301023511951 ], [ 81.09345202706146, 16.98591219852446 ], [ 81.115614489150133, 17.0335685510783 ], [ 81.156786727706319, 17.040834844098409 ], [ 81.224669270485307, 17.036320212767219 ], [ 81.232702006896517, 17.06111273282821 ], [ 81.223866787085527, 17.088468703752131 ], [ 81.197173175322689, 17.11148058771888 ], [ 81.154895912517574, 17.12391153602421 ], [ 81.172795158440195, 17.14013192155755 ], [ 81.175678635593002, 17.165821981155279 ], [ 81.201426151796824, 17.170937427605601 ], [ 81.230269688550237, 17.161591617521111 ], [ 81.273047844958626, 17.16867508006704 ], [ 81.289372976587273, 17.15118816870325 ], [ 81.321035078225592, 17.14283830994983 ], [ 81.307395556386965, 17.124762075598579 ], [ 81.319747177881297, 17.104081563051661 ], [ 81.374074668600983, 17.11934573071175 ], [ 81.402970085091468, 17.108917182883012 ], [ 81.400322297512659, 17.089311185756451 ], [ 81.361839797153863, 17.06792753297778 ], [ 81.344801240660502, 17.046339492630839 ], [ 81.305150842229125, 17.033792487853429 ], [ 81.29812002827714, 17.00952018072795 ], [ 81.255785815649716, 17.02402662914886 ], [ 81.237177074518257, 16.967559441011591 ], [ 81.204932109368784, 16.964862820073929 ], [ 81.210359276041558, 16.92472105429416 ], [ 81.18620158931796, 16.87278649461707 ], [ 81.156283408193161, 16.87966400134712 ], [ 81.12329803297618, 16.905352322884049 ], [ 81.087152984685474, 16.91309570677285 ], [ 81.056192332628967, 16.868036394650161 ], [ 81.003119613135851, 16.86609145756886 ], [ 80.983042645554733, 16.874245323375462 ], [ 80.960915330597174, 16.91273543428386 ], [ 80.956255019692023, 16.936313503812752 ], [ 80.934155818265452, 16.95989683916067 ], [ 80.936080926725651, 16.982731898328161 ], [ 80.952151395129789, 16.99067090809638 ], [ 80.964257263309719, 17.032912541037579 ], [ 80.94294699700248, 17.067083319351841 ], [ 80.876977839062022, 17.07020722607195 ], [ 80.879473668894718, 17.160574657765 ], [ 80.923848866484761, 17.157742313374989 ], [ 80.925494427889959, 17.183557494875089 ], [ 80.916549716852799, 17.215831917539859 ], [ 80.935388905981227, 17.220222560842679 ], [ 80.99841348501478, 17.190647849366471 ], [ 81.031999112287053, 17.19210469690287 ] ] ] } },
{ "type": "Feature", "properties": { "AC_NAME": "Gopalapuram (SC)", "AC_NO": "185", "DIST_NAME": "WEST GODAVARI", "ST_NAME": "ANDHRA PRADESH", "ac_id": "AC_09" }, "geometry": { "type": "Polygon", "coordinates": [ [ [ 81.613034272288928, 17.167911674876379 ], [ 81.585223321993041, 17.153000086461361 ], [ 81.585858191453212, 17.118097269681339 ], [ 81.60962447116637, 17.10075073408899 ], [ 81.608406773462207, 17.06318847854757 ], [ 81.644470256275412, 17.043965315681941 ], [ 81.643455017589034, 17.01860770520004 ], [ 81.598529922593571, 17.011229368914279 ], [ 81.592494565052235, 16.977916333745348 ], [ 81.572723578875852, 16.975417320140451 ], [ 81.563192436956186, 16.954419048776021 ], [ 81.533598503114433, 16.942743424016331 ], [ 81.482971590491957, 16.940975635354562 ], [ 81.481433401191325, 16.90081042643072 ], [ 81.457840459470489, 16.892486018248579 ], [ 81.36254093362615, 16.897800649629879 ], [ 81.35278896079501, 16.86931501787425 ], [ 81.32246870611057, 16.82826661174688 ], [ 81.296036463181338, 16.822218911996 ], [ 81.290069731453613, 16.845842379102351 ], [ 81.218626734724594, 16.846097347006349 ], [ 81.207993901335399, 16.865777991709368 ], [ 81.18620158931796, 16.87278649461707 ], [ 81.210359276041558, 16.92472105429416 ], [ 81.204932109368784, 16.964862820073929 ], [ 81.237177074518257, 16.967559441011591 ], [ 81.255785815649716, 17.02402662914886 ], [ 81.29812002827714, 17.00952018072795 ], [ 81.305150842229125, 17.033792487853429 ], [ 81.344801240660502, 17.046339492630839 ], [ 81.357783241958984, 17.021109122122681 ], [ 81.415335311548745, 17.04191184781266 ], [ 81.434040757652042, 17.011089641356548 ], [ 81.447608233082548, 17.032707580957169 ], [ 81.426092567403856, 17.06087417747575 ], [ 81.448453668626996, 17.07212506162605 ], [ 81.447505836914857, 17.099884745079741 ], [ 81.466022191363109, 17.113636705779822 ], [ 81.477513216185827, 17.14122751106672 ], [ 81.46646083000843, 17.16993949799005 ], [ 81.518066489192321, 17.189882695705101 ], [ 81.544685975208623, 17.210887090161322 ], [ 81.613034272288928, 17.167911674876379 ] ] ] } },
{ "type": "Feature", "properties": { "AC_NAME": "Peddapuram", "AC_NO": "158", "DIST_NAME": "EAST GODAVARI", "ST_NAME": "ANDHRA PRADESH", "ac_id": "AC_10" }, "geometry": { "type": "Polygon", "coordinates": [ [ [ 82.181419461362367, 17.14758568778959 ], [ 82.163699854415185, 17.129504948784881 ], [ 82.176847851719387, 17.085389998028361 ], [ 82.224282475140029, 17.090664365564329 ], [ 82.260143268311282, 17.06769426523088 ], [ 82.228927647239132, 17.040760209762791 ], [ 82.231099107572916, 17.0147203134471 ], [ 82.202809305732885, 17.015472195821431 ], [ 82.199947233209457, 16.98579195830818 ], [ 82.179930519261305, 16.980207751265869 ], [ 82.163945876648583, 16.993151547753261 ], [ 82.07389699874669, 16.956539885793291 ], [ 82.056221028101376, 16.988566226529532 ], [ 82.054620364169608, 17.009169989510561 ], [ 82.071301002051044, 17.023763021426149 ], [ 82.068571403477293, 17.055611039612121 ], [ 82.056896604732856, 17.071317621329769 ], [ 82.07667652446132, 17.084890397581361 ], [ 82.081663711551883, 17.117632734647461 ], [ 82.097055984292822, 17.13110339147714 ], [ 82.111920165512402, 17.166861904279269 ], [ 82.135019278053448, 17.16706909819597 ], [ 82.181419461362367, 17.14758568778959 ] ] ] } },
{ "type": "Feature", "properties": { "AC_NAME": "Kovvur (SC)", "AC_NO": "173", "DIST_NAME": "WEST GODAVARI", "ST_NAME": "ANDHRA PRADESH", "ac_id": "AC_11" }, "geometry": { "type": "Polygon", "coordinates": [ [ [ 81.613034272288928, 17.167911674876379 ], [ 81.644596966859112, 17.151763279320249 ], [ 81.663528128557388, 17.151659399226279 ], [ 81.680702171376581, 17.094835131949061 ], [ 81.6970305346657, 17.085565535729611 ], [ 81.722650301707603, 17.05100242202511 ], [ 81.742777922839267, 17.001784256205919 ], [ 81.744848014561413, 16.965219667877228 ], [ 81.729170189023336, 16.944379595314771 ], [ 81.724423330730502, 16.914947968050051 ], [ 81.69788160446096, 16.921762415987679 ], [ 81.662372661345373, 16.918501431080369 ], [ 81.603865885572318, 16.922703719337498 ], [ 81.563192436956186, 16.954419048776021 ], [ 81.572723578875852, 16.975417320140451 ], [ 81.592494565052235, 16.977916333745348 ], [ 81.598529922593571, 17.011229368914279 ], [ 81.643455017589034, 17.01860770520004 ], [ 81.644470256275412, 17.043965315681941 ], [ 81.608406773462207, 17.06318847854757 ], [ 81.60962447116637, 17.10075073408899 ], [ 81.585858191453212, 17.118097269681339 ], [ 81.585223321993041, 17.153000086461361 ], [ 81.613034272288928, 17.167911674876379 ] ] ] } },
{ "type": "Feature", "properties": { "AC_NAME": "Tiruvuru (SC)", "AC_NO": "188", "DIST_NAME": "KRISHNA", "ST_NAME": "ANDHRA PRADESH", "ac_id": "AC_12" }, "geometry": { "type": "Polygon", "coordinates": [ [ [ 80.394424815154423, 17.07644546076332 ], [ 80.412125948342577, 17.092507714089312 ], [ 80.438617463705114, 17.037907061825351 ], [ 80.4648474900266, 17.030346880566398 ], [ 80.471363351826838, 17.050691778867439 ], [ 80.490918895107924, 17.05129503777329 ], [ 80.505501224194958, 17.069138382425731 ], [ 80.504152536234642, 17.09329402775537 ], [ 80.527650337609955, 17.11925617165376 ], [ 80.562606883608296, 17.133189488709469 ], [ 80.579968390822444, 17.15336838678002 ], [ 80.67039738471, 17.101205508688629 ], [ 80.653534631874649, 17.06893728400156 ], [ 80.738863868763858, 17.0796355762403 ], [ 80.76478435721269, 17.06692538387091 ], [ 80.796638937663246, 17.06224988056438 ], [ 80.782704780187416, 17.037712103289479 ], [ 80.830308797190128, 17.00154323217707 ], [ 80.830219339074674, 16.945506490559691 ], [ 80.799740543853787, 16.89139056919473 ], [ 80.775179614797537, 16.89282413031804 ], [ 80.766852269716125, 16.917924305900168 ], [ 80.776881464925225, 16.936425618644641 ], [ 80.747118727832898, 16.97382979700863 ], [ 80.715825533706308, 16.971670439672359 ], [ 80.710581255754065, 16.94409808468485 ], [ 80.718693136073455, 16.929126199102999 ], [ 80.711990162397683, 16.89719180100678 ], [ 80.668333187061876, 16.9296459132058 ], [ 80.669577635488494, 16.899899109029789 ], [ 80.649591438178319, 16.86225258873419 ], [ 80.594956647884075, 16.884089407290929 ], [ 80.602209910217411, 16.918790612596119 ], [ 80.580750437524813, 16.937340864907188 ], [ 80.535423468600158, 16.961187412473631 ], [ 80.526499535467082, 16.947794284444701 ], [ 80.497115962069515, 16.954669617064109 ], [ 80.493325641716964, 16.92719867748308 ], [ 80.447448068451834, 16.95593245738274 ], [ 80.365012692845426, 16.975253223010149 ], [ 80.387858597102451, 17.009312744926898 ], [ 80.395763661083009, 17.03577375760991 ], [ 80.394424815154423, 17.07644546076332 ] ] ] } },
{ "type": "Feature", "properties": { "AC_NAME": "Anaparthy", "AC_NO": "159", "DIST_NAME": "EAST GODAVARI", "ST_NAME": "ANDHRA PRADESH", "ac_id": "AC_13" }, "geometry": { "type": "Polygon", "coordinates": [ [ [ 81.919465041842315, 17.095699063459769 ], [ 81.964423818227075, 17.115936941154299 ], [ 81.99409673775709, 17.113045247740288 ], [ 82.034616334353444, 17.093109006960699 ], [ 82.056896604732856, 17.071317621329769 ], [ 82.068571403477293, 17.055611039612121 ], [ 82.071301002051044, 17.023763021426149 ], [ 82.054620364169608, 17.009169989510561 ], [ 82.056221028101376, 16.988566226529532 ], [ 82.07389699874669, 16.956539885793291 ], [ 82.163945876648583, 16.993151547753261 ], [ 82.179930519261305, 16.980207751265869 ], [ 82.199947233209457, 16.98579195830818 ], [ 82.200966888606928, 16.959448172858728 ], [ 82.185815782227593, 16.937596610242391 ], [ 82.149419561617108, 16.9164752592757 ], [ 82.141687773391141, 16.881701005393879 ], [ 82.123913612302957, 16.88219490262949 ], [ 82.090831152414751, 16.865448536722489 ], [ 82.052000133408583, 16.85714339045089 ], [ 82.03776580874991, 16.88365155932577 ], [ 82.004173372070468, 16.89460657461299 ], [ 81.974489468513369, 16.84377327132843 ], [ 81.940315783024928, 16.89450598404888 ], [ 81.936862857892834, 16.939853387761008 ], [ 81.961618045272317, 16.949205006076792 ], [ 81.95963648969115, 16.989432998681689 ], [ 81.929967133389681, 17.022795169288379 ], [ 81.964702407563735, 17.045457295739102 ], [ 81.941574073076396, 17.068173330620908 ], [ 81.915660520522451, 17.07637461450641 ], [ 81.919465041842315, 17.095699063459769 ] ] ] } },
{ "type": "Feature", "properties": { "AC_NAME": "Rajahmundry City", "AC_NO": "169", "DIST_NAME": "EAST GODAVARI", "ST_NAME": "ANDHRA PRADESH", "ac_id": "AC_14" }, "geometry": { "type": "Polygon", "coordinates": [ [ [ 81.722650301707603, 17.05100242202511 ], [ 81.761445320367898, 17.07831715156081 ], [ 81.785107012019395, 17.06558446370255 ], [ 81.784171628271793, 17.030167608343142 ], [ 81.808555479094096, 17.0246643470953 ], [ 81.823711450008062, 17.003366092654382 ], [ 81.818855635400965, 16.987030480490361 ], [ 81.78572399066006, 16.946587891415859 ], [ 81.773469780826645, 16.992213447005799 ], [ 81.742777922839267, 17.001784256205919 ], [ 81.722650301707603, 17.05100242202511 ] ] ] } },
{ "type": "Feature", "properties": { "AC_NAME": "Nuzvid", "AC_NO": "189", "DIST_NAME": "KRISHNA", "ST_NAME": "ANDHRA PRADESH", "ac_id": "AC_15" }, "geometry": { "type": "Polygon", "coordinates": [ [ [ 80.876977839062022, 17.07020722607195 ], [ 80.94294699700248, 17.067083319351841 ], [ 80.964257263309719, 17.032912541037579 ], [ 80.952151395129789, 16.99067090809638 ], [ 80.936080926725651, 16.982731898328161 ], [ 80.934155818265452, 16.95989683916067 ], [ 80.956255019692023, 16.936313503812752 ], [ 80.960915330597174, 16.91273543428386 ], [ 80.983042645554733, 16.874245323375462 ], [ 80.999575638476486, 16.837074863078321 ], [ 81.042755622446165, 16.785503396467199 ], [ 81.017290284193507, 16.777059643262501 ], [ 80.981484159733043, 16.72357469603859 ], [ 80.989850777143388, 16.68162947876846 ], [ 81.01856828375746, 16.650494394121289 ], [ 80.995469124978797, 16.635868993533791 ], [ 80.975960541841786, 16.665381286077888 ], [ 80.954247711867083, 16.671121976096511 ], [ 80.931719556600711, 16.70326160774091 ], [ 80.895998310039246, 16.671682852030671 ], [ 80.885435299676246, 16.643533516171761 ], [ 80.840998483319041, 16.618833767273241 ], [ 80.836304876430532, 16.645721389793671 ], [ 80.817905720887282, 16.654903177046101 ], [ 80.783938012395566, 16.632775822124952 ], [ 80.707026443352646, 16.627032095471211 ], [ 80.694536888271728, 16.635477760767341 ], [ 80.694392042932563, 16.68299419094086 ], [ 80.708082184736114, 16.699620230665779 ], [ 80.739574787305457, 16.72655759536438 ], [ 80.747072666943069, 16.75711031050524 ], [ 80.777891284014061, 16.814197996919901 ], [ 80.816309223216606, 16.792171702034331 ], [ 80.818243737021035, 16.82745688365868 ], [ 80.799740543853787, 16.89139056919473 ], [ 80.830219339074674, 16.945506490559691 ], [ 80.830308797190128, 17.00154323217707 ], [ 80.782704780187416, 17.037712103289479 ], [ 80.796638937663246, 17.06224988056438 ], [ 80.845196362728714, 17.039625390776319 ], [ 80.876977839062022, 17.07020722607195 ] ] ] } },
{ "type": "Feature", "properties": { "AC_NAME": "Kakinada Rural", "AC_NO": "157", "DIST_NAME": "EAST GODAVARI", "ST_NAME": "ANDHRA PRADESH", "ac_id": "AC_16" }, "geometry": { "type": "Polygon", "coordinates": [ [ [ 82.260143268311282, 17.06769426523088 ], [ 82.30703586473139, 17.04238359847761 ], [ 82.288493170697294, 17.014891050416509 ], [ 82.26861188238442, 16.954624564274319 ], [ 82.257497673894377, 16.937234714880692 ], [ 82.249543924127792, 16.935592793021701 ], [ 82.252399039849635, 16.89578665598027 ], [ 82.230805402447729, 16.892091561521809 ], [ 82.195643686449145, 16.844992882773269 ], [ 82.151477973189046, 16.85296048149916 ], [ 82.15009681797001, 16.831153404113518 ], [ 82.128496465129444, 16.80787683266756 ], [ 82.107485110302392, 16.828044667516949 ], [ 82.090831152414751, 16.865448536722489 ], [ 82.123913612302957, 16.88219490262949 ], [ 82.141687773391141, 16.881701005393879 ], [ 82.149419561617108, 16.9164752592757 ], [ 82.185815782227593, 16.937596610242391 ], [ 82.200966888606928, 16.959448172858728 ], [ 82.199947233209457, 16.98579195830818 ], [ 82.202809305732885, 17.015472195821431 ], [ 82.231099107572916, 17.0147203134471 ], [ 82.228927647239132, 17.040760209762791 ], [ 82.260143268311282, 17.06769426523088 ] ] ] } },
{ "type": "Feature", "properties": { "AC_NAME": "Jaggayyapeta", "AC_NO": "203", "DIST_NAME": "KRISHNA", "ST_NAME": "ANDHRA PRADESH", "ac_id": "AC_17" }, "geometry": { "type": "Polygon", "coordinates": [ [ [ 80.056288032320566, 16.970781985690301 ], [ 80.091356105300079, 16.96827952586429 ], [ 80.095417222982888, 16.99039594056006 ], [ 80.120261862816562, 16.987874190321079 ], [ 80.14050658604269, 16.990354930465031 ], [ 80.170175773613465, 17.016869345895511 ], [ 80.202060180817682, 17.017346911756171 ], [ 80.264108761439289, 16.997550496921971 ], [ 80.283106960614376, 17.007820340829088 ], [ 80.303280292132712, 16.95424892281266 ], [ 80.316159592298334, 16.94862185176904 ], [ 80.312707657379718, 16.917435018958969 ], [ 80.324556449916713, 16.906068400667181 ], [ 80.321787691480921, 16.879296435954149 ], [ 80.326010345258325, 16.8614003083282 ], [ 80.294481130877614, 16.8330233416734 ], [ 80.301834969379868, 16.806855049268389 ], [ 80.27443773829043, 16.808047757365589 ], [ 80.266875584565867, 16.793686919889851 ], [ 80.201665324315826, 16.795527246673711 ], [ 80.131503948145863, 16.78849006899641 ], [ 80.113645816003469, 16.823274610906921 ], [ 80.072921004551986, 16.818199057097811 ], [ 80.048223408456778, 16.832890303467341 ], [ 80.046627477479589, 16.85320933156499 ], [ 80.018064725789571, 16.85369729732464 ], [ 80.00233413902771, 16.871360542753369 ], [ 80.013956753195828, 16.90390454405609 ], [ 80.040503124915006, 16.919663799285171 ], [ 80.056288032320566, 16.970781985690301 ] ] ] } },
{ "type": "Feature", "properties": { "AC_NAME": "Rajahmundry Rural", "AC_NO": "170", "DIST_NAME": "EAST GODAVARI", "ST_NAME": "ANDHRA PRADESH", "ac_id": "AC_18" }, "geometry": { "type": "Polygon", "coordinates": [ [ [ 81.78572399066006, 16.946587891415859 ], [ 81.818855635400965, 16.987030480490361 ], [ 81.823711450008062, 17.003366092654382 ], [ 81.84599222487391, 16.99700925980477 ], [ 81.846354949335023, 16.974694014780411 ], [ 81.828473753994359, 16.96002732651753 ], [ 81.826307881094692, 16.938585467763239 ], [ 81.856864776884123, 16.924039418623099 ], [ 81.869137238312135, 16.9016700097777 ], [ 81.880107409927632, 16.858174649682041 ], [ 81.869010493872594, 16.828495971668008 ], [ 81.841710545742217, 16.849762721421321 ], [ 81.809958433311138, 16.84170864167503 ], [ 81.78572399066006, 16.946587891415859 ] ] ] } },
{ "type": "Feature", "properties": { "AC_NAME": "Kothapeta", "AC_NO": "166", "DIST_NAME": "EAST GODAVARI", "ST_NAME": "ANDHRA PRADESH", "ac_id": "AC_19" }, "geometry": { "type": "Polygon", "coordinates": [ [ [ 81.742777922839267, 17.001784256205919 ], [ 81.773469780826645, 16.992213447005799 ], [ 81.78572399066006, 16.946587891415859 ], [ 81.809958433311138, 16.84170864167503 ], [ 81.841710545742217, 16.849762721421321 ], [ 81.869010493872594, 16.828495971668008 ], [ 81.914310393862976, 16.814207510879509 ], [ 81.931672386372213, 16.79333703325927 ], [ 81.912219462205513, 16.751035935040409 ], [ 81.885986063760086, 16.74806422410381 ], [ 81.91511567881463, 16.71588688836453 ], [ 81.966290207484917, 16.703035831355891 ], [ 81.963067702318241, 16.6828251679059 ], [ 81.935343987075896, 16.657583912369891 ], [ 81.917334848489787, 16.668510948227048 ], [ 81.883286105822336, 16.663578147685921 ], [ 81.882352257015697, 16.650811744202421 ], [ 81.844601967949401, 16.64121162723205 ], [ 81.802148641814142, 16.694011044556198 ], [ 81.784999279233347, 16.709338679624349 ], [ 81.790854380707273, 16.74547820813488 ], [ 81.765020122733361, 16.76148847756528 ], [ 81.744538936167814, 16.793464642784059 ], [ 81.75328223636987, 16.824858009744709 ], [ 81.746671595239619, 16.866596039638331 ], [ 81.733183540593515, 16.880081825874669 ], [ 81.724423330730502, 16.914947968050051 ], [ 81.729170189023336, 16.944379595314771 ], [ 81.744848014561413, 16.965219667877228 ], [ 81.742777922839267, 17.001784256205919 ] ] ] } },
{ "type": "Feature", "properties": { "AC_NAME": "Mummidivaram", "AC_NO": "162", "DIST_NAME": "EAST GODAVARI", "ST_NAME": "ANDHRA PRADESH", "ac_id": "AC_20" }, "geometry": { "type": "Polygon", "coordinates": [ [ [ 82.173803992238277, 16.511221753687821 ], [ 82.134979901550437, 16.571470790152699 ], [ 82.109361126634923, 16.572392363807161 ], [ 82.093532877321309, 16.587339987418581 ], [ 82.068661627125863, 16.58512901915844 ], [ 82.043434164618958, 16.603674903280261 ], [ 82.085992544607507, 16.632139313580868 ], [ 82.08735436164676, 16.66506737443218 ], [ 82.066069538051806, 16.672841279862009 ], [ 82.105404720907288, 16.684077336628022 ], [ 82.125459925369768, 16.677978484042491 ], [ 82.163287980575646, 16.681893194280342 ], [ 82.156865147157063, 16.71053979534021 ], [ 82.128748192584752, 16.709607052929002 ], [ 82.140115843222986, 16.734204501818329 ], [ 82.181648031229855, 16.73917086765773 ], [ 82.219057800544405, 16.764073240809701 ], [ 82.195643686449145, 16.844992882773269 ], [ 82.230805402447729, 16.892091561521809 ], [ 82.252399039849635, 16.89578665598027 ], [ 82.264183546976327, 16.88261464361641 ], [ 82.349400520660851, 16.850568694637708 ], [ 82.358470181009537, 16.809657203840459 ], [ 82.344275521656897, 16.744069641837658 ], [ 82.34842573149615, 16.71622848873174 ], [ 82.365943471507606, 16.70684047229614 ], [ 82.3171596022203, 16.661986590954029 ], [ 82.329961152320763, 16.620750929314529 ], [ 82.323137824390784, 16.577803866262251 ], [ 82.299464099043561, 16.55601115870844 ], [ 82.260348227415918, 16.552466391305309 ], [ 82.173803992238277, 16.511221753687821 ] ], [ [ 82.225997445173647, 16.75861978372162 ], [ 82.211921472078416, 16.751103952688119 ], [ 82.203796158262477, 16.717715542960342 ], [ 82.239041421592503, 16.716292078619649 ], [ 82.267469411942926, 16.69465088389515 ], [ 82.294480759415421, 16.704536242200021 ], [ 82.313786346544305, 16.729395269218799 ], [ 82.243472330232123, 16.722273577390339 ], [ 82.21747587226227, 16.732766347878702 ], [ 82.225997445173647, 16.75861978372162 ] ] ] } },
{ "type": "Feature", "properties": { "AC_NAME": "Mylavaram", "AC_NO": "201", "DIST_NAME": "KRISHNA", "ST_NAME": "ANDHRA PRADESH", "ac_id": "AC_21" }, "geometry": { "type": "Polygon", "coordinates": [ [ [ 80.799740543853787, 16.89139056919473 ], [ 80.818243737021035, 16.82745688365868 ], [ 80.816309223216606, 16.792171702034331 ], [ 80.777891284014061, 16.814197996919901 ], [ 80.747072666943069, 16.75711031050524 ], [ 80.739574787305457, 16.72655759536438 ], [ 80.708082184736114, 16.699620230665779 ], [ 80.691699583991451, 16.689235289514571 ], [ 80.668336539621961, 16.693757950705201 ], [ 80.643650819621755, 16.647816312734491 ], [ 80.598950738732555, 16.607422573872281 ], [ 80.578802188649775, 16.597190564169161 ], [ 80.554015339236344, 16.542193799763591 ], [ 80.528792862414249, 16.562912278338722 ], [ 80.467168229183343, 16.590710049467081 ], [ 80.410308462064123, 16.584796631275701 ], [ 80.424967390923655, 16.62309861913862 ], [ 80.456573140897717, 16.642389927262592 ], [ 80.48114730836339, 16.683468295104412 ], [ 80.511197473220918, 16.71143492305357 ], [ 80.513193877997054, 16.731010219972639 ], [ 80.503298885769468, 16.779862354213041 ], [ 80.570133179250917, 16.76880583880558 ], [ 80.597037371931918, 16.792889910497909 ], [ 80.576032273686906, 16.826407823510419 ], [ 80.568943033442892, 16.869681653116409 ], [ 80.594956647884075, 16.884089407290929 ], [ 80.649591438178319, 16.86225258873419 ], [ 80.669577635488494, 16.899899109029789 ], [ 80.668333187061876, 16.9296459132058 ], [ 80.711990162397683, 16.89719180100678 ], [ 80.718693136073455, 16.929126199102999 ], [ 80.710581255754065, 16.94409808468485 ], [ 80.715825533706308, 16.971670439672359 ], [ 80.747118727832898, 16.97382979700863 ], [ 80.776881464925225, 16.936425618644641 ], [ 80.766852269716125, 16.917924305900168 ], [ 80.775179614797537, 16.89282413031804 ], [ 80.799740543853787, 16.89139056919473 ] ] ] } },
{ "type": "Feature", "properties": { "AC_NAME": "Mandapeta", "AC_NO": "167", "DIST_NAME": "EAST GODAVARI", "ST_NAME": "ANDHRA PRADESH", "ac_id": "AC_22" }, "geometry": { "type": "Polygon", "coordinates": [ [ [ 81.936862857892834, 16.939853387761008 ], [ 81.940315783024928, 16.89450598404888 ], [ 81.974489468513369, 16.84377327132843 ], [ 82.004173372070468, 16.89460657461299 ], [ 82.03776580874991, 16.88365155932577 ], [ 82.052000133408583, 16.85714339045089 ], [ 82.024277761521247, 16.85194081377221 ], [ 82.028936579271999, 16.831790284012609 ], [ 82.007485961522221, 16.823262633931229 ], [ 82.028131511271752, 16.79108197307778 ], [ 82.018504724527602, 16.75995423946976 ], [ 81.98072264837208, 16.751222648543688 ], [ 82.015682665017536, 16.722694474053458 ], [ 82.015811051689013, 16.70542435578184 ], [ 81.994424957868091, 16.700579242447979 ], [ 81.992410152673799, 16.678891735986848 ], [ 81.963067702318241, 16.6828251679059 ], [ 81.966290207484917, 16.703035831355891 ], [ 81.91511567881463, 16.71588688836453 ], [ 81.885986063760086, 16.74806422410381 ], [ 81.912219462205513, 16.751035935040409 ], [ 81.931672386372213, 16.79333703325927 ], [ 81.914310393862976, 16.814207510879509 ], [ 81.869010493872594, 16.828495971668008 ], [ 81.880107409927632, 16.858174649682041 ], [ 81.869137238312135, 16.9016700097777 ], [ 81.856864776884123, 16.924039418623099 ], [ 81.882451637274357, 16.94550561817837 ], [ 81.898358538599837, 16.945833223111379 ], [ 81.915604105424777, 16.969656593489891 ], [ 81.936862857892834, 16.939853387761008 ] ] ] } },
{ "type": "Feature", "properties": { "AC_NAME": "Tadepalligudem", "AC_NO": "181", "DIST_NAME": "WEST GODAVARI", "ST_NAME": "ANDHRA PRADESH", "ac_id": "AC_23" }, "geometry": { "type": "Polygon", "coordinates": [ [ [ 81.533598503114433, 16.942743424016331 ], [ 81.548528456005954, 16.913942711688861 ], [ 81.57143540923424, 16.897552313259901 ], [ 81.619356870350813, 16.88760236428373 ], [ 81.635639123876899, 16.85105654305924 ], [ 81.651370331358592, 16.843150910856529 ], [ 81.638374267490107, 16.81674662798542 ], [ 81.621047036630429, 16.819800526372241 ], [ 81.602281670651294, 16.80136359717574 ], [ 81.606190860611534, 16.748920522484159 ], [ 81.589410128251501, 16.71860020623971 ], [ 81.563664633372525, 16.717015684347629 ], [ 81.512528934702615, 16.733653484552359 ], [ 81.49916372135101, 16.721687539263609 ], [ 81.477995020962553, 16.73103442579486 ], [ 81.443364928449824, 16.721809929928011 ], [ 81.436070325485701, 16.747927843032421 ], [ 81.47096631270604, 16.757176076570229 ], [ 81.473860538023203, 16.787317887426131 ], [ 81.491733006701324, 16.803560389429261 ], [ 81.460517077586417, 16.858139615716709 ], [ 81.457840459470489, 16.892486018248579 ], [ 81.481433401191325, 16.90081042643072 ], [ 81.482971590491957, 16.940975635354562 ], [ 81.533598503114433, 16.942743424016331 ] ] ] } },
{ "type": "Feature", "properties": { "AC_NAME": "Nidadavole", "AC_NO": "174", "DIST_NAME": "WEST GODAVARI", "ST_NAME": "ANDHRA PRADESH", "ac_id": "AC_24" }, "geometry": { "type": "Polygon", "coordinates": [ [ [ 81.563192436956186, 16.954419048776021 ], [ 81.603865885572318, 16.922703719337498 ], [ 81.662372661345373, 16.918501431080369 ], [ 81.69788160446096, 16.921762415987679 ], [ 81.724423330730502, 16.914947968050051 ], [ 81.733183540593515, 16.880081825874669 ], [ 81.746671595239619, 16.866596039638331 ], [ 81.75328223636987, 16.824858009744709 ], [ 81.744538936167814, 16.793464642784059 ], [ 81.765020122733361, 16.76148847756528 ], [ 81.790854380707273, 16.74547820813488 ], [ 81.784999279233347, 16.709338679624349 ], [ 81.802148641814142, 16.694011044556198 ], [ 81.788757497208223, 16.678757292893081 ], [ 81.760817316945889, 16.67078764266806 ], [ 81.750612488536348, 16.708577526236979 ], [ 81.723092579581717, 16.72349850959576 ], [ 81.724010465477392, 16.75862535068168 ], [ 81.673969766491425, 16.757756186845629 ], [ 81.630550381918709, 16.782293810899969 ], [ 81.638374267490107, 16.81674662798542 ], [ 81.651370331358592, 16.843150910856529 ], [ 81.635639123876899, 16.85105654305924 ], [ 81.619356870350813, 16.88760236428373 ], [ 81.57143540923424, 16.897552313259901 ], [ 81.548528456005954, 16.913942711688861 ], [ 81.533598503114433, 16.942743424016331 ], [ 81.563192436956186, 16.954419048776021 ] ] ] } },
{ "type": "Feature", "properties": { "AC_NAME": "Denduluru", "AC_NO": "183", "DIST_NAME": "WEST GODAVARI", "ST_NAME": "ANDHRA PRADESH", "ac_id": "AC_25" }, "geometry": { "type": "Polygon", "coordinates": [ [ [ 81.18620158931796, 16.87278649461707 ], [ 81.207993901335399, 16.865777991709368 ], [ 81.218626734724594, 16.846097347006349 ], [ 81.211034185245538, 16.76351919720749 ], [ 81.240659588434852, 16.740902183819149 ], [ 81.242320569076526, 16.706827716508968 ], [ 81.178334846038581, 16.68518557427852 ], [ 81.149768983780334, 16.708559265374419 ], [ 81.153082712623785, 16.732872418543479 ], [ 81.128877498642439, 16.743888766171391 ], [ 81.115117025521286, 16.725685640631351 ], [ 81.093024965385524, 16.744691187750181 ], [ 81.084451168455701, 16.77489214122923 ], [ 81.071552025303703, 16.777394022879751 ], [ 81.062760769456204, 16.689410457151251 ], [ 81.101575156968622, 16.692739015164179 ], [ 81.08050103266217, 16.657713089962069 ], [ 81.094269848746521, 16.634166048287089 ], [ 81.091627621155894, 16.60565110219925 ], [ 81.078778497864121, 16.57519075046315 ], [ 81.049723943544265, 16.570317597548989 ], [ 81.011443308509456, 16.56046923229167 ], [ 81.006347774818295, 16.586448813105779 ], [ 80.972922387167358, 16.626586362380699 ], [ 80.954247711867083, 16.671121976096511 ], [ 80.975960541841786, 16.665381286077888 ], [ 80.995469124978797, 16.635868993533791 ], [ 81.01856828375746, 16.650494394121289 ], [ 80.989850777143388, 16.68162947876846 ], [ 80.981484159733043, 16.72357469603859 ], [ 81.017290284193507, 16.777059643262501 ], [ 81.042755622446165, 16.785503396467199 ], [ 80.999575638476486, 16.837074863078321 ], [ 80.983042645554733, 16.874245323375462 ], [ 81.003119613135851, 16.86609145756886 ], [ 81.056192332628967, 16.868036394650161 ], [ 81.087152984685474, 16.91309570677285 ], [ 81.12329803297618, 16.905352322884049 ], [ 81.156283408193161, 16.87966400134712 ], [ 81.18620158931796, 16.87278649461707 ] ] ] } },
{ "type": "Feature", "properties": { "AC_NAME": "Ungutur", "AC_NO": "182", "DIST_NAME": "WEST GODAVARI", "ST_NAME": "ANDHRA PRADESH", "ac_id": "AC_26" }, "geometry": { "type": "Polygon", "coordinates": [ [ [ 81.457840459470489, 16.892486018248579 ], [ 81.460517077586417, 16.858139615716709 ], [ 81.491733006701324, 16.803560389429261 ], [ 81.473860538023203, 16.787317887426131 ], [ 81.47096631270604, 16.757176076570229 ], [ 81.436070325485701, 16.747927843032421 ], [ 81.443364928449824, 16.721809929928011 ], [ 81.477995020962553, 16.73103442579486 ], [ 81.49916372135101, 16.721687539263609 ], [ 81.512528934702615, 16.733653484552359 ], [ 81.563664633372525, 16.717015684347629 ], [ 81.589410128251501, 16.71860020623971 ], [ 81.596129075664891, 16.702559226030541 ], [ 81.547430989118268, 16.663878190744661 ], [ 81.542316764931087, 16.63707072299394 ], [ 81.527595031329952, 16.665829990682369 ], [ 81.467800935771336, 16.674858935179181 ], [ 81.435271862141391, 16.656352778913138 ], [ 81.38562935362863, 16.665495442781602 ], [ 81.331638734391703, 16.659363706576791 ], [ 81.328911578360305, 16.689237749184208 ], [ 81.307299545529645, 16.692803013381798 ], [ 81.279018209132474, 16.65128074890643 ], [ 81.235338339052163, 16.665032178545321 ], [ 81.248065604996569, 16.69367445276918 ], [ 81.242320569076526, 16.706827716508968 ], [ 81.240659588434852, 16.740902183819149 ], [ 81.211034185245538, 16.76351919720749 ], [ 81.218626734724594, 16.846097347006349 ], [ 81.290069731453613, 16.845842379102351 ], [ 81.296036463181338, 16.822218911996 ], [ 81.32246870611057, 16.82826661174688 ], [ 81.35278896079501, 16.86931501787425 ], [ 81.36254093362615, 16.897800649629879 ], [ 81.457840459470489, 16.892486018248579 ] ] ] } },
{ "type": "Feature", "properties": { "AC_NAME": "Nandigama (SC)", "AC_NO": "202", "DIST_NAME": "KRISHNA", "ST_NAME": "ANDHRA PRADESH", "ac_id": "AC_27" }, "geometry": { "type": "Polygon", "coordinates": [ [ [ 80.321787691480921, 16.879296435954149 ], [ 80.340517925017537, 16.85968953126741 ], [ 80.373645299929947, 16.852056470185289 ], [ 80.373442757834567, 16.829830474513539 ], [ 80.404381050380906, 16.832441911085969 ], [ 80.408003152777098, 16.848705283995951 ], [ 80.46497493079012, 16.820278766191191 ], [ 80.46499838051642, 16.79522186650042 ], [ 80.503298885769468, 16.779862354213041 ], [ 80.513193877997054, 16.731010219972639 ], [ 80.511197473220918, 16.71143492305357 ], [ 80.48114730836339, 16.683468295104412 ], [ 80.456573140897717, 16.642389927262592 ], [ 80.424967390923655, 16.62309861913862 ], [ 80.410308462064123, 16.584796631275701 ], [ 80.388867330392031, 16.58611101691573 ], [ 80.367455475931536, 16.58781109541016 ], [ 80.331313383064938, 16.61175779222328 ], [ 80.252616394493586, 16.611132038103388 ], [ 80.181536477789194, 16.642747379892029 ], [ 80.141015161658316, 16.65058666552984 ], [ 80.148937365141862, 16.687950758363272 ], [ 80.144207547954807, 16.73486591215163 ], [ 80.131503948145863, 16.78849006899641 ], [ 80.201665324315826, 16.795527246673711 ], [ 80.266875584565867, 16.793686919889851 ], [ 80.27443773829043, 16.808047757365589 ], [ 80.301834969379868, 16.806855049268389 ], [ 80.294481130877614, 16.8330233416734 ], [ 80.326010345258325, 16.8614003083282 ], [ 80.321787691480921, 16.879296435954149 ] ] ] } },
{ "type": "Feature", "properties": { "AC_NAME": "Ramachandrapuram", "AC_NO": "161", "DIST_NAME": "EAST GODAVARI", "ST_NAME": "ANDHRA PRADESH", "ac_id": "AC_28" }, "geometry": { "type": "Polygon", "coordinates": [ [ [ 82.090831152414751, 16.865448536722489 ], [ 82.107485110302392, 16.828044667516949 ], [ 82.128496465129444, 16.80787683266756 ], [ 82.15009681797001, 16.831153404113518 ], [ 82.151477973189046, 16.85296048149916 ], [ 82.195643686449145, 16.844992882773269 ], [ 82.219057800544405, 16.764073240809701 ], [ 82.181648031229855, 16.73917086765773 ], [ 82.140115843222986, 16.734204501818329 ], [ 82.128748192584752, 16.709607052929002 ], [ 82.156865147157063, 16.71053979534021 ], [ 82.163287980575646, 16.681893194280342 ], [ 82.125459925369768, 16.677978484042491 ], [ 82.105404720907288, 16.684077336628022 ], [ 82.066069538051806, 16.672841279862009 ], [ 82.039825858777462, 16.6675652498506 ], [ 82.018831453324225, 16.680105701428172 ], [ 82.015811051689013, 16.70542435578184 ], [ 82.015682665017536, 16.722694474053458 ], [ 81.98072264837208, 16.751222648543688 ], [ 82.018504724527602, 16.75995423946976 ], [ 82.028131511271752, 16.79108197307778 ], [ 82.007485961522221, 16.823262633931229 ], [ 82.028936579271999, 16.831790284012609 ], [ 82.024277761521247, 16.85194081377221 ], [ 82.052000133408583, 16.85714339045089 ], [ 82.090831152414751, 16.865448536722489 ] ] ] } },
{ "type": "Feature", "properties": { "AC_NAME": "Tanuku", "AC_NO": "180", "DIST_NAME": "WEST GODAVARI", "ST_NAME": "ANDHRA PRADESH", "ac_id": "AC_29" }, "geometry": { "type": "Polygon", "coordinates": [ [ [ 81.638374267490107, 16.81674662798542 ], [ 81.630550381918709, 16.782293810899969 ], [ 81.673969766491425, 16.757756186845629 ], [ 81.724010465477392, 16.75862535068168 ], [ 81.723092579581717, 16.72349850959576 ], [ 81.750612488536348, 16.708577526236979 ], [ 81.760817316945889, 16.67078764266806 ], [ 81.737383724751297, 16.663670050677229 ], [ 81.698186932755249, 16.636333027137731 ], [ 81.67375852417689, 16.681662621171931 ], [ 81.654054647209037, 16.68640557309131 ], [ 81.629829133667215, 16.666800778637079 ], [ 81.610762775555528, 16.621346210210021 ], [ 81.598191475686377, 16.59979957119376 ], [ 81.580966810060147, 16.58901401624302 ], [ 81.571093366294747, 16.627677280742571 ], [ 81.542316764931087, 16.63707072299394 ], [ 81.547430989118268, 16.663878190744661 ], [ 81.596129075664891, 16.702559226030541 ], [ 81.589410128251501, 16.71860020623971 ], [ 81.606190860611534, 16.748920522484159 ], [ 81.602281670651294, 16.80136359717574 ], [ 81.621047036630429, 16.819800526372241 ], [ 81.638374267490107, 16.81674662798542 ] ] ] } },
{ "type": "Feature", "properties": { "AC_NAME": "Eluru", "AC_NO": "184", "DIST_NAME": "WEST GODAVARI", "ST_NAME": "ANDHRA PRADESH", "ac_id": "AC_30" }, "geometry": { "type": "Polygon", "coordinates": [ [ [ 81.242320569076526, 16.706827716508968 ], [ 81.248065604996569, 16.69367445276918 ], [ 81.235338339052163, 16.665032178545321 ], [ 81.279018209132474, 16.65128074890643 ], [ 81.265326191703537, 16.606825538933869 ], [ 81.237545527873564, 16.592619544346409 ], [ 81.228167836734301, 16.573879763211771 ], [ 81.188999478692054, 16.62159356546977 ], [ 81.167488472137663, 16.619865826394062 ], [ 81.151501057488275, 16.59493366963785 ], [ 81.137006322746899, 16.606957177001931 ], [ 81.11561584450547, 16.592620459846859 ], [ 81.091627621155894, 16.60565110219925 ], [ 81.094269848746521, 16.634166048287089 ], [ 81.08050103266217, 16.657713089962069 ], [ 81.101575156968622, 16.692739015164179 ], [ 81.062760769456204, 16.689410457151251 ], [ 81.071552025303703, 16.777394022879751 ], [ 81.084451168455701, 16.77489214122923 ], [ 81.093024965385524, 16.744691187750181 ], [ 81.115117025521286, 16.725685640631351 ], [ 81.128877498642439, 16.743888766171391 ], [ 81.153082712623785, 16.732872418543479 ], [ 81.149768983780334, 16.708559265374419 ], [ 81.178334846038581, 16.68518557427852 ], [ 81.242320569076526, 16.706827716508968 ] ] ] } },
{ "type": "Feature", "properties": { "AC_NAME": "Gannavaram", "AC_NO": "190", "DIST_NAME": "KRISHNA", "ST_NAME": "ANDHRA PRADESH", "ac_id": "AC_31" }, "geometry": { "type": "Polygon", "coordinates": [ [ [ 80.708082184736114, 16.699620230665779 ], [ 80.694392042932563, 16.68299419094086 ], [ 80.694536888271728, 16.635477760767341 ], [ 80.707026443352646, 16.627032095471211 ], [ 80.783938012395566, 16.632775822124952 ], [ 80.817905720887282, 16.654903177046101 ], [ 80.836304876430532, 16.645721389793671 ], [ 80.840998483319041, 16.618833767273241 ], [ 80.885435299676246, 16.643533516171761 ], [ 80.895998310039246, 16.671682852030671 ], [ 80.931719556600711, 16.70326160774091 ], [ 80.954247711867083, 16.671121976096511 ], [ 80.972922387167358, 16.626586362380699 ], [ 81.006347774818295, 16.586448813105779 ], [ 81.011443308509456, 16.56046923229167 ], [ 80.981908699431159, 16.555573739103458 ], [ 80.973850410471542, 16.538073378769429 ], [ 80.958222689875257, 16.553682472475611 ], [ 80.933285001888933, 16.545326404980621 ], [ 80.927862341008094, 16.51753010344099 ], [ 80.902488356961797, 16.453219063153679 ], [ 80.880033762201691, 16.46205314751321 ], [ 80.847258956536422, 16.437897732658481 ], [ 80.821766053608627, 16.43974894059518 ], [ 80.815531994066546, 16.468696873240461 ], [ 80.839959649386969, 16.474962443185571 ], [ 80.81271684777596, 16.510725240671739 ], [ 80.791533089943925, 16.499293863915799 ], [ 80.762706861963522, 16.51942990833485 ], [ 80.685541093199944, 16.545103476621769 ], [ 80.660688363674723, 16.566011391165588 ], [ 80.626015546916094, 16.55740431191094 ], [ 80.606665292330405, 16.558112072132548 ], [ 80.591072277406226, 16.515880032153181 ], [ 80.555009090377794, 16.534400203348 ], [ 80.554015339236344, 16.542193799763591 ], [ 80.578802188649775, 16.597190564169161 ], [ 80.598950738732555, 16.607422573872281 ], [ 80.643650819621755, 16.647816312734491 ], [ 80.668336539621961, 16.693757950705201 ], [ 80.691699583991451, 16.689235289514571 ], [ 80.708082184736114, 16.699620230665779 ] ] ] } },
{ "type": "Feature", "properties": { "AC_NAME": "Gannavaram (SC)", "AC_NO": "165", "DIST_NAME": "EAST GODAVARI", "ST_NAME": "ANDHRA PRADESH", "ac_id": "AC_32" }, "geometry": { "type": "Polygon", "coordinates": [ [ [ 81.963067702318241, 16.6828251679059 ], [ 81.992410152673799, 16.678891735986848 ], [ 81.994424957868091, 16.700579242447979 ], [ 82.015811051689013, 16.70542435578184 ], [ 82.018831453324225, 16.680105701428172 ], [ 82.039825858777462, 16.6675652498506 ], [ 82.066069538051806, 16.672841279862009 ], [ 82.08735436164676, 16.66506737443218 ], [ 82.085992544607507, 16.632139313580868 ], [ 82.043434164618958, 16.603674903280261 ], [ 81.989506527546737, 16.613757488555709 ], [ 81.991801117457683, 16.588150518993931 ], [ 81.960960556088253, 16.574798984035159 ], [ 81.964504791663316, 16.53082627446863 ], [ 81.943100879339411, 16.556767297054069 ], [ 81.926328699511672, 16.544988565005092 ], [ 81.920718926734793, 16.514414950169929 ], [ 81.881330951871064, 16.496276617657749 ], [ 81.848427485807846, 16.50546375619437 ], [ 81.844886652331581, 16.529624361498929 ], [ 81.858402652155107, 16.597921237294329 ], [ 81.844601967949401, 16.64121162723205 ], [ 81.882352257015697, 16.650811744202421 ], [ 81.883286105822336, 16.663578147685921 ], [ 81.917334848489787, 16.668510948227048 ], [ 81.935343987075896, 16.657583912369891 ], [ 81.963067702318241, 16.6828251679059 ] ] ] } },
{ "type": "Feature", "properties": { "AC_NAME": "Kaikalur", "AC_NO": "192", "DIST_NAME": "KRISHNA", "ST_NAME": "ANDHRA PRADESH", "ac_id": "AC_33" }, "geometry": { "type": "Polygon", "coordinates": [ [ [ 81.331638734391703, 16.659363706576791 ], [ 81.327619361792713, 16.619697445395509 ], [ 81.346193936501976, 16.591423882990561 ], [ 81.348951363483366, 16.565163907950289 ], [ 81.338364083084045, 16.50524289676336 ], [ 81.370713284555919, 16.499755276979311 ], [ 81.373185951950603, 16.459101179179399 ], [ 81.393295056969023, 16.4400854168051 ], [ 81.399483431495156, 16.431635737796139 ], [ 81.371919893971807, 16.41436607112696 ], [ 81.3515318055248, 16.41361316872861 ], [ 81.319449615107786, 16.428094923534921 ], [ 81.319839883105089, 16.459877510622011 ], [ 81.292548301473701, 16.462155568957218 ], [ 81.290557257306503, 16.438988750187551 ], [ 81.250661444485218, 16.415732477361718 ], [ 81.213099789407408, 16.425970783610978 ], [ 81.199365987636639, 16.384283770696811 ], [ 81.173905994538956, 16.392392348183659 ], [ 81.16814079034728, 16.412258138476648 ], [ 81.138601716517428, 16.3831401341827 ], [ 81.109184314626575, 16.400250584861521 ], [ 81.062325439427582, 16.40605470891181 ], [ 81.086533609983164, 16.456789685316931 ], [ 81.087537420066965, 16.49596558609004 ], [ 81.11144135984658, 16.503628978309258 ], [ 81.107082167885281, 16.558326624193089 ], [ 81.08343389251101, 16.569155307481971 ], [ 81.065374043306122, 16.548813239981879 ], [ 81.049723943544265, 16.570317597548989 ], [ 81.078778497864121, 16.57519075046315 ], [ 81.091627621155894, 16.60565110219925 ], [ 81.11561584450547, 16.592620459846859 ], [ 81.137006322746899, 16.606957177001931 ], [ 81.151501057488275, 16.59493366963785 ], [ 81.167488472137663, 16.619865826394062 ], [ 81.188999478692054, 16.62159356546977 ], [ 81.228167836734301, 16.573879763211771 ], [ 81.237545527873564, 16.592619544346409 ], [ 81.265326191703537, 16.606825538933869 ], [ 81.279018209132474, 16.65128074890643 ], [ 81.307299545529645, 16.692803013381798 ], [ 81.328911578360305, 16.689237749184208 ], [ 81.331638734391703, 16.659363706576791 ] ] ] } },
{ "type": "Feature", "properties": { "AC_NAME": "Achanta", "AC_NO": "175", "DIST_NAME": "WEST GODAVARI", "ST_NAME": "ANDHRA PRADESH", "ac_id": "AC_34" }, "geometry": { "type": "Polygon", "coordinates": [ [ [ 81.760817316945889, 16.67078764266806 ], [ 81.788757497208223, 16.678757292893081 ], [ 81.802148641814142, 16.694011044556198 ], [ 81.844601967949401, 16.64121162723205 ], [ 81.858402652155107, 16.597921237294329 ], [ 81.844886652331581, 16.529624361498929 ], [ 81.809621253913022, 16.526299031440161 ], [ 81.765613809754527, 16.506516689592289 ], [ 81.734027016124386, 16.515360505149921 ], [ 81.731182575058611, 16.532715665378721 ], [ 81.707676381491297, 16.5419837106271 ], [ 81.678981326486507, 16.58075987916849 ], [ 81.67318710387903, 16.612558318783719 ], [ 81.632031116841134, 16.604438872726909 ], [ 81.610762775555528, 16.621346210210021 ], [ 81.629829133667215, 16.666800778637079 ], [ 81.654054647209037, 16.68640557309131 ], [ 81.67375852417689, 16.681662621171931 ], [ 81.698186932755249, 16.636333027137731 ], [ 81.737383724751297, 16.663670050677229 ], [ 81.760817316945889, 16.67078764266806 ] ] ] } },
{ "type": "Feature", "properties": { "AC_NAME": "Undi", "AC_NO": "179", "DIST_NAME": "WEST GODAVARI", "ST_NAME": "ANDHRA PRADESH", "ac_id": "AC_35" }, "geometry": { "type": "Polygon", "coordinates": [ [ [ 81.542316764931087, 16.63707072299394 ], [ 81.571093366294747, 16.627677280742571 ], [ 81.580966810060147, 16.58901401624302 ], [ 81.598191475686377, 16.59979957119376 ], [ 81.612328961770402, 16.587044166049989 ], [ 81.613602474116675, 16.56250773146002 ], [ 81.597183210214993, 16.52773514708754 ], [ 81.568817758888812, 16.50509009590661 ], [ 81.552467261092119, 16.51979954377645 ], [ 81.551428820741052, 16.550281799947559 ], [ 81.52966825532954, 16.553191702306691 ], [ 81.51141290355001, 16.574303911145229 ], [ 81.490634060155188, 16.572910852729951 ], [ 81.491007922369377, 16.543609962950949 ], [ 81.479626499917345, 16.532084521041249 ], [ 81.47266597766081, 16.498456478260191 ], [ 81.452996229853198, 16.473044484540718 ], [ 81.430076109319003, 16.482753247771662 ], [ 81.416207688474174, 16.452859131859551 ], [ 81.393295056969023, 16.4400854168051 ], [ 81.373185951950603, 16.459101179179399 ], [ 81.370713284555919, 16.499755276979311 ], [ 81.338364083084045, 16.50524289676336 ], [ 81.348951363483366, 16.565163907950289 ], [ 81.346193936501976, 16.591423882990561 ], [ 81.327619361792713, 16.619697445395509 ], [ 81.331638734391703, 16.659363706576791 ], [ 81.38562935362863, 16.665495442781602 ], [ 81.435271862141391, 16.656352778913138 ], [ 81.467800935771336, 16.674858935179181 ], [ 81.527595031329952, 16.665829990682369 ], [ 81.542316764931087, 16.63707072299394 ] ] ] } },
{ "type": "Feature", "properties": { "AC_NAME": "Bhimavaram", "AC_NO": "178", "DIST_NAME": "WEST GODAVARI", "ST_NAME": "ANDHRA PRADESH", "ac_id": "AC_36" }, "geometry": { "type": "Polygon", "coordinates": [ [ [ 81.678981326486507, 16.58075987916849 ], [ 81.670947541622894, 16.554647528001251 ], [ 81.634407980270737, 16.531790772036501 ], [ 81.632150152590071, 16.489005626068352 ], [ 81.630602825469509, 16.46844103120608 ], [ 81.581078452314472, 16.453145492737612 ], [ 81.580863086851494, 16.435057502685869 ], [ 81.540521362296559, 16.422716518600989 ], [ 81.518848804061335, 16.431545415771591 ], [ 81.497547018846106, 16.420931006571688 ], [ 81.480349449692383, 16.388129928082979 ], [ 81.453694090055322, 16.405094628005269 ], [ 81.437666533810471, 16.39852344420466 ], [ 81.399483431495156, 16.431635737796139 ], [ 81.393295056969023, 16.4400854168051 ], [ 81.416207688474174, 16.452859131859551 ], [ 81.430076109319003, 16.482753247771662 ], [ 81.452996229853198, 16.473044484540718 ], [ 81.47266597766081, 16.498456478260191 ], [ 81.479626499917345, 16.532084521041249 ], [ 81.491007922369377, 16.543609962950949 ], [ 81.490634060155188, 16.572910852729951 ], [ 81.51141290355001, 16.574303911145229 ], [ 81.52966825532954, 16.553191702306691 ], [ 81.551428820741052, 16.550281799947559 ], [ 81.552467261092119, 16.51979954377645 ], [ 81.568817758888812, 16.50509009590661 ], [ 81.597183210214993, 16.52773514708754 ], [ 81.613602474116675, 16.56250773146002 ], [ 81.612328961770402, 16.587044166049989 ], [ 81.598191475686377, 16.59979957119376 ], [ 81.610762775555528, 16.621346210210021 ], [ 81.632031116841134, 16.604438872726909 ], [ 81.67318710387903, 16.612558318783719 ], [ 81.678981326486507, 16.58075987916849 ] ] ] } },
{ "type": "Feature", "properties": { "AC_NAME": "Amalapuram (SC)", "AC_NO": "163", "DIST_NAME": "EAST GODAVARI", "ST_NAME": "ANDHRA PRADESH", "ac_id": "AC_37" }, "geometry": { "type": "Polygon", "coordinates": [ [ [ 82.043434164618958, 16.603674903280261 ], [ 82.068661627125863, 16.58512901915844 ], [ 82.093532877321309, 16.587339987418581 ], [ 82.109361126634923, 16.572392363807161 ], [ 82.134979901550437, 16.571470790152699 ], [ 82.173803992238277, 16.511221753687821 ], [ 81.992041357999398, 16.420409003118021 ], [ 81.957758154923582, 16.3974925064866 ], [ 81.965551380752089, 16.447013884181661 ], [ 81.962473900318813, 16.47757707432087 ], [ 81.974006152997561, 16.50973469223997 ], [ 81.964504791663316, 16.53082627446863 ], [ 81.960960556088253, 16.574798984035159 ], [ 81.991801117457683, 16.588150518993931 ], [ 81.989506527546737, 16.613757488555709 ], [ 82.043434164618958, 16.603674903280261 ] ] ] } },
{ "type": "Feature", "properties": { "AC_NAME": "Palacole", "AC_NO": "176", "DIST_NAME": "WEST GODAVARI", "ST_NAME": "ANDHRA PRADESH", "ac_id": "AC_38" }, "geometry": { "type": "Polygon", "coordinates": [ [ [ 81.844886652331581, 16.529624361498929 ], [ 81.848427485807846, 16.50546375619437 ], [ 81.785373812847297, 16.463644484878941 ], [ 81.755469019168999, 16.42350821899516 ], [ 81.730124296892185, 16.436244625131561 ], [ 81.749367242903233, 16.44989107251244 ], [ 81.734733506063932, 16.47428022456786 ], [ 81.684481858502124, 16.468572355001939 ], [ 81.66287095010172, 16.48395317272335 ], [ 81.632150152590071, 16.489005626068352 ], [ 81.634407980270737, 16.531790772036501 ], [ 81.670947541622894, 16.554647528001251 ], [ 81.678981326486507, 16.58075987916849 ], [ 81.707676381491297, 16.5419837106271 ], [ 81.731182575058611, 16.532715665378721 ], [ 81.734027016124386, 16.515360505149921 ], [ 81.765613809754527, 16.506516689592289 ], [ 81.809621253913022, 16.526299031440161 ], [ 81.844886652331581, 16.529624361498929 ] ] ] } },
{ "type": "Feature", "properties": { "AC_NAME": "Vijayawada Central", "AC_NO": "199", "DIST_NAME": "KRISHNA", "ST_NAME": "ANDHRA PRADESH", "ac_id": "AC_39" }, "geometry": { "type": "Polygon", "coordinates": [ [ [ 80.626015546916094, 16.55740431191094 ], [ 80.660688363674723, 16.566011391165588 ], [ 80.685541093199944, 16.545103476621769 ], [ 80.683764545527268, 16.53908236457367 ], [ 80.661918962475653, 16.506962857638459 ], [ 80.642623151915217, 16.50592551748414 ], [ 80.639235658608399, 16.535809672762181 ], [ 80.626015546916094, 16.55740431191094 ] ] ] } },
{ "type": "Feature", "properties": { "AC_NAME": "Gudivada", "AC_NO": "191", "DIST_NAME": "KRISHNA", "ST_NAME": "ANDHRA PRADESH", "ac_id": "AC_40" }, "geometry": { "type": "Polygon", "coordinates": [ [ [ 81.049723943544265, 16.570317597548989 ], [ 81.065374043306122, 16.548813239981879 ], [ 81.08343389251101, 16.569155307481971 ], [ 81.107082167885281, 16.558326624193089 ], [ 81.11144135984658, 16.503628978309258 ], [ 81.087537420066965, 16.49596558609004 ], [ 81.086533609983164, 16.456789685316931 ], [ 81.062325439427582, 16.40605470891181 ], [ 81.109184314626575, 16.400250584861521 ], [ 81.138601716517428, 16.3831401341827 ], [ 81.105043740611592, 16.354619120247499 ], [ 81.099991516754457, 16.34088604084782 ], [ 81.135034936042601, 16.314424119285651 ], [ 81.12189075209227, 16.280617348502521 ], [ 81.096288539025949, 16.284400199050872 ], [ 81.078447565130176, 16.309162349538511 ], [ 81.045669670511344, 16.283203909028291 ], [ 81.028710857082174, 16.30784355821557 ], [ 81.028049021241799, 16.331312030359999 ], [ 81.006176305078355, 16.340476360250509 ], [ 81.001333540455562, 16.382311184625241 ], [ 80.969261531095313, 16.388470127120769 ], [ 80.98130528998945, 16.450362885344841 ], [ 80.972023600941839, 16.498493050093721 ], [ 80.951876680809804, 16.502694247798079 ], [ 80.951132295355364, 16.527813433236201 ], [ 80.973850410471542, 16.538073378769429 ], [ 80.981908699431159, 16.555573739103458 ], [ 81.011443308509456, 16.56046923229167 ], [ 81.049723943544265, 16.570317597548989 ] ] ] } },
{ "type": "Feature", "properties": { "AC_NAME": "Vijayawada West", "AC_NO": "198", "DIST_NAME": "KRISHNA", "ST_NAME": "ANDHRA PRADESH", "ac_id": "AC_41" }, "geometry": { "type": "Polygon", "coordinates": [ [ [ 80.591072277406226, 16.515880032153181 ], [ 80.606665292330405, 16.558112072132548 ], [ 80.626015546916094, 16.55740431191094 ], [ 80.639235658608399, 16.535809672762181 ], [ 80.642623151915217, 16.50592551748414 ], [ 80.628574241792592, 16.494727470166051 ], [ 80.591072277406226, 16.515880032153181 ] ] ] } },
{ "type": "Feature", "properties": { "AC_NAME": "Razole (SC)", "AC_NO": "164", "DIST_NAME": "EAST GODAVARI", "ST_NAME": "ANDHRA PRADESH", "ac_id": "AC_42" }, "geometry": { "type": "Polygon", "coordinates": [ [ [ 81.964504791663316, 16.53082627446863 ], [ 81.974006152997561, 16.50973469223997 ], [ 81.962473900318813, 16.47757707432087 ], [ 81.965551380752089, 16.447013884181661 ], [ 81.957758154923582, 16.3974925064866 ], [ 81.905957838307188, 16.390222403097351 ], [ 81.866198573708999, 16.379233882367821 ], [ 81.748313885997746, 16.32428375718127 ], [ 81.713810658001904, 16.313327059851769 ], [ 81.71695124285246, 16.35890927958248 ], [ 81.697639847243238, 16.41588966321239 ], [ 81.711173179980847, 16.444176407540802 ], [ 81.730124296892185, 16.436244625131561 ], [ 81.755469019168999, 16.42350821899516 ], [ 81.785373812847297, 16.463644484878941 ], [ 81.848427485807846, 16.50546375619437 ], [ 81.881330951871064, 16.496276617657749 ], [ 81.920718926734793, 16.514414950169929 ], [ 81.926328699511672, 16.544988565005092 ], [ 81.943100879339411, 16.556767297054069 ], [ 81.964504791663316, 16.53082627446863 ] ] ] } },
{ "type": "Feature", "properties": { "AC_NAME": "Pamarru (SC)", "AC_NO": "196", "DIST_NAME": "KRISHNA", "ST_NAME": "ANDHRA PRADESH", "ac_id": "AC_43" }, "geometry": { "type": "Polygon", "coordinates": [ [ [ 80.973850410471542, 16.538073378769429 ], [ 80.951132295355364, 16.527813433236201 ], [ 80.951876680809804, 16.502694247798079 ], [ 80.972023600941839, 16.498493050093721 ], [ 80.98130528998945, 16.450362885344841 ], [ 80.969261531095313, 16.388470127120769 ], [ 81.001333540455562, 16.382311184625241 ], [ 81.006176305078355, 16.340476360250509 ], [ 81.028049021241799, 16.331312030359999 ], [ 81.028710857082174, 16.30784355821557 ], [ 81.045669670511344, 16.283203909028291 ], [ 81.048322282351293, 16.260588949049581 ], [ 81.028268029307313, 16.227268861944982 ], [ 80.99901761820044, 16.230121494050881 ], [ 80.980933163165119, 16.19423841864765 ], [ 80.968955000958218, 16.20459799442828 ], [ 80.930921415862741, 16.203143315590289 ], [ 80.893045556542305, 16.220604589708259 ], [ 80.823551108944926, 16.217827898250722 ], [ 80.802687753054897, 16.242641593220139 ], [ 80.797869498592078, 16.283163069556561 ], [ 80.784826989597306, 16.288317851453112 ], [ 80.748439964883104, 16.329790301835089 ], [ 80.726580759848858, 16.378839778868269 ], [ 80.750250459609134, 16.413780033331069 ], [ 80.79998909108609, 16.399200914031852 ], [ 80.799143851687333, 16.380345168441881 ], [ 80.853373197115616, 16.355233269288739 ], [ 80.866330863482943, 16.372214471380541 ], [ 80.920153912153751, 16.395713336285041 ], [ 80.917990743684044, 16.425945839343271 ], [ 80.902488356961797, 16.453219063153679 ], [ 80.927862341008094, 16.51753010344099 ], [ 80.933285001888933, 16.545326404980621 ], [ 80.958222689875257, 16.553682472475611 ], [ 80.973850410471542, 16.538073378769429 ] ] ] } },
{ "type": "Feature", "properties": { "AC_NAME": "Penamaluru", "AC_NO": "197", "DIST_NAME": "KRISHNA", "ST_NAME": "ANDHRA PRADESH", "ac_id": "AC_44" }, "geometry": { "type": "Polygon", "coordinates": [ [ [ 80.685541093199944, 16.545103476621769 ], [ 80.762706861963522, 16.51942990833485 ], [ 80.791533089943925, 16.499293863915799 ], [ 80.81271684777596, 16.510725240671739 ], [ 80.839959649386969, 16.474962443185571 ], [ 80.815531994066546, 16.468696873240461 ], [ 80.821766053608627, 16.43974894059518 ], [ 80.847258956536422, 16.437897732658481 ], [ 80.880033762201691, 16.46205314751321 ], [ 80.902488356961797, 16.453219063153679 ], [ 80.917990743684044, 16.425945839343271 ], [ 80.920153912153751, 16.395713336285041 ], [ 80.866330863482943, 16.372214471380541 ], [ 80.853373197115616, 16.355233269288739 ], [ 80.799143851687333, 16.380345168441881 ], [ 80.79998909108609, 16.399200914031852 ], [ 80.750250459609134, 16.413780033331069 ], [ 80.726580759848858, 16.378839778868269 ], [ 80.674213942718424, 16.424823269037621 ], [ 80.670529521739297, 16.465650534140369 ], [ 80.654552179765361, 16.47906381567482 ], [ 80.683711970154889, 16.486778137617851 ], [ 80.683764545527268, 16.53908236457367 ], [ 80.685541093199944, 16.545103476621769 ] ] ] } },
{ "type": "Feature", "properties": { "AC_NAME": "Vijayawada East", "AC_NO": "200", "DIST_NAME": "KRISHNA", "ST_NAME": "ANDHRA PRADESH", "ac_id": "AC_45" }, "geometry": { "type": "Polygon", "coordinates": [ [ [ 80.642623151915217, 16.50592551748414 ], [ 80.661918962475653, 16.506962857638459 ], [ 80.683764545527268, 16.53908236457367 ], [ 80.683711970154889, 16.486778137617851 ], [ 80.654552179765361, 16.47906381567482 ], [ 80.628574241792592, 16.494727470166051 ], [ 80.642623151915217, 16.50592551748414 ] ] ] } },
{ "type": "Feature", "properties": { "AC_NAME": "Narasapuram", "AC_NO": "177", "DIST_NAME": "WEST GODAVARI", "ST_NAME": "ANDHRA PRADESH", "ac_id": "AC_46" }, "geometry": { "type": "Polygon", "coordinates": [ [ [ 81.632150152590071, 16.489005626068352 ], [ 81.66287095010172, 16.48395317272335 ], [ 81.684481858502124, 16.468572355001939 ], [ 81.734733506063932, 16.47428022456786 ], [ 81.749367242903233, 16.44989107251244 ], [ 81.730124296892185, 16.436244625131561 ], [ 81.711173179980847, 16.444176407540802 ], [ 81.697639847243238, 16.41588966321239 ], [ 81.71695124285246, 16.35890927958248 ], [ 81.713810658001904, 16.313327059851769 ], [ 81.690569294889471, 16.327848233497591 ], [ 81.555359479961567, 16.347271207773421 ], [ 81.54668332903897, 16.378341080930529 ], [ 81.512705420212825, 16.37034191868932 ], [ 81.488263068593497, 16.373425025217529 ], [ 81.480349449692383, 16.388129928082979 ], [ 81.497547018846106, 16.420931006571688 ], [ 81.518848804061335, 16.431545415771591 ], [ 81.540521362296559, 16.422716518600989 ], [ 81.580863086851494, 16.435057502685869 ], [ 81.581078452314472, 16.453145492737612 ], [ 81.630602825469509, 16.46844103120608 ], [ 81.632150152590071, 16.489005626068352 ] ] ] } },
{ "type": "Feature", "properties": { "AC_NAME": "Pedana", "AC_NO": "193", "DIST_NAME": "KRISHNA", "ST_NAME": "ANDHRA PRADESH", "ac_id": "AC_47" }, "geometry": { "type": "Polygon", "coordinates": [ [ [ 81.399483431495156, 16.431635737796139 ], [ 81.437666533810471, 16.39852344420466 ], [ 81.453694090055322, 16.405094628005269 ], [ 81.480349449692383, 16.388129928082979 ], [ 81.488263068593497, 16.373425025217529 ], [ 81.512705420212825, 16.37034191868932 ], [ 81.54668332903897, 16.378341080930529 ], [ 81.555359479961567, 16.347271207773421 ], [ 81.487179763752721, 16.355438548840151 ], [ 81.39243637438797, 16.342678757491509 ], [ 81.324280346278798, 16.314482678790231 ], [ 81.265011656911327, 16.278503778948998 ], [ 81.252190272749701, 16.303798373667181 ], [ 81.215043931110941, 16.287377904396031 ], [ 81.195277049981442, 16.25828013679638 ], [ 81.171261847233637, 16.266675902439939 ], [ 81.11728901255259, 16.23184301535689 ], [ 81.080885125445704, 16.195095309310911 ], [ 81.100486747126538, 16.176865084695841 ], [ 81.06896917616065, 16.143196690728072 ], [ 81.048288718558709, 16.152272771629431 ], [ 81.013913557634268, 16.178767004316899 ], [ 80.980933163165119, 16.19423841864765 ], [ 80.99901761820044, 16.230121494050881 ], [ 81.028268029307313, 16.227268861944982 ], [ 81.048322282351293, 16.260588949049581 ], [ 81.045669670511344, 16.283203909028291 ], [ 81.078447565130176, 16.309162349538511 ], [ 81.096288539025949, 16.284400199050872 ], [ 81.12189075209227, 16.280617348502521 ], [ 81.135034936042601, 16.314424119285651 ], [ 81.099991516754457, 16.34088604084782 ], [ 81.105043740611592, 16.354619120247499 ], [ 81.138601716517428, 16.3831401341827 ], [ 81.16814079034728, 16.412258138476648 ], [ 81.173905994538956, 16.392392348183659 ], [ 81.199365987636639, 16.384283770696811 ], [ 81.213099789407408, 16.425970783610978 ], [ 81.250661444485218, 16.415732477361718 ], [ 81.290557257306503, 16.438988750187551 ], [ 81.292548301473701, 16.462155568957218 ], [ 81.319839883105089, 16.459877510622011 ], [ 81.319449615107786, 16.428094923534921 ], [ 81.3515318055248, 16.41361316872861 ], [ 81.371919893971807, 16.41436607112696 ], [ 81.399483431495156, 16.431635737796139 ] ] ] } },
{ "type": "Feature", "properties": { "AC_NAME": "Machilipatnam", "AC_NO": "194", "DIST_NAME": "KRISHNA", "ST_NAME": "ANDHRA PRADESH", "ac_id": "AC_48" }, "geometry": { "type": "Polygon", "coordinates": [ [ [ 81.265011656911327, 16.278503778948998 ], [ 81.23794286519869, 16.24687833212818 ], [ 81.213718341424297, 16.207592185322191 ], [ 81.195598189207303, 16.115500346023062 ], [ 81.147426549729744, 16.019960896225388 ], [ 81.139211223676995, 15.969592390832879 ], [ 81.11708353452002, 16.002574540962989 ], [ 81.065720837669843, 16.010860379475361 ], [ 81.07409609227588, 16.029893108601389 ], [ 81.070919845583362, 16.056150191688019 ], [ 81.046654002176709, 16.058792838028861 ], [ 81.041937329999655, 16.07847245339973 ], [ 81.01640515461412, 16.09090393166214 ], [ 80.982256250193146, 16.12944124516078 ], [ 80.993279008505226, 16.150510156921079 ], [ 81.03698656853112, 16.143280887097958 ], [ 81.048288718558709, 16.152272771629431 ], [ 81.06896917616065, 16.143196690728072 ], [ 81.100486747126538, 16.176865084695841 ], [ 81.080885125445704, 16.195095309310911 ], [ 81.11728901255259, 16.23184301535689 ], [ 81.171261847233637, 16.266675902439939 ], [ 81.195277049981442, 16.25828013679638 ], [ 81.215043931110941, 16.287377904396031 ], [ 81.252190272749701, 16.303798373667181 ], [ 81.265011656911327, 16.278503778948998 ] ] ] } },
{ "type": "Feature", "properties": { "AC_NAME": "Avanigadda", "AC_NO": "195", "DIST_NAME": "KRISHNA", "ST_NAME": "ANDHRA PRADESH", "ac_id": "AC_49" }, "geometry": { "type": "Polygon", "coordinates": [ [ [ 80.980933163165119, 16.19423841864765 ], [ 81.013913557634268, 16.178767004316899 ], [ 81.048288718558709, 16.152272771629431 ], [ 81.03698656853112, 16.143280887097958 ], [ 80.993279008505226, 16.150510156921079 ], [ 80.982256250193146, 16.12944124516078 ], [ 81.01640515461412, 16.09090393166214 ], [ 81.038311139551581, 16.078279620194909 ], [ 81.044758867910517, 16.057892485331799 ], [ 81.071158193897219, 16.04923215058399 ], [ 81.062803992837217, 16.013464035164759 ], [ 81.075016266308467, 15.99880300724179 ], [ 81.091326975718886, 16.00493332283262 ], [ 81.119955038219487, 15.99345488648521 ], [ 81.134654103902676, 15.96635214146402 ], [ 81.07146520800616, 15.91150003509253 ], [ 81.00089808256628, 15.832426029815521 ], [ 80.995258240954911, 15.80351002383223 ], [ 81.014435656433605, 15.77227290907668 ], [ 81.008187328775392, 15.754124632900741 ], [ 80.938751131786091, 15.71660259891701 ], [ 80.928009231995389, 15.721985157961051 ], [ 80.832623910322681, 15.707040777431191 ], [ 80.838281063438941, 15.763302635117039 ], [ 80.872650672567588, 15.846357542490789 ], [ 80.886299147745916, 15.85651854926197 ], [ 80.903210765151812, 15.9174250314808 ], [ 80.890215435335023, 15.96113375044661 ], [ 80.891356155904191, 16.001148356355561 ], [ 80.87704103619707, 16.0522132274385 ], [ 80.86350534261625, 16.132974624756031 ], [ 80.828162553148374, 16.19923041524218 ], [ 80.823551108944926, 16.217827898250722 ], [ 80.893045556542305, 16.220604589708259 ], [ 80.930921415862741, 16.203143315590289 ], [ 80.968955000958218, 16.20459799442828 ], [ 80.980933163165119, 16.19423841864765 ] ] ] } },
{ "type": "Feature", "properties": { "AC_NAME": null, "AC_NO": "0", "DIST_NAME": "KRISHNA", "ST_NAME": "ANDHRA PRADESH", "ac_id": "AC_50" }, "geometry": { "type": "Polygon", "coordinates": [ [ [ 81.01640515461412, 16.09090393166214 ], [ 81.041937329999655, 16.07847245339973 ], [ 81.046654002176709, 16.058792838028861 ], [ 81.070919845583362, 16.056150191688019 ], [ 81.07409609227588, 16.029893108601389 ], [ 81.065720837669843, 16.010860379475361 ], [ 81.11708353452002, 16.002574540962989 ], [ 81.139211223676995, 15.969592390832879 ], [ 81.134654103902676, 15.96635214146402 ], [ 81.119955038219487, 15.99345488648521 ], [ 81.091326975718886, 16.00493332283262 ], [ 81.075016266308467, 15.99880300724179 ], [ 81.062803992837217, 16.013464035164759 ], [ 81.071158193897219, 16.04923215058399 ], [ 81.044758867910517, 16.057892485331799 ], [ 81.038311139551581, 16.078279620194909 ], [ 81.01640515461412, 16.09090393166214 ] ] ] } }
]
}
